{
"type": "FeatureCollection",
"name": "Neighborhood_Centers_in_King_County___neighborhood_centers_point",
"crs": { "type": "name", "properties": { "name": "urn:ogc:def:crs:OGC:1.3:CRS84" } },
"features": [
{ "type": "Feature", "properties": { "OBJECTID": 1, "FEATURE_ID": 90001, "CODE": 90, "NAME": "Bitter Lake Neighborhood", "ADDRESS": "N 130th St & Greenwood Ave N", "NEIGH_NUM": 3, "XCOORD": 1265775.8748603601, "YCOORD": 267518.40603327, "LONGITUDE": -122.35554967, "LATITUDE": 47.72323154 }, "geometry": { "type": "Point", "coordinates": [ -122.355548448286186, 47.723233265127988 ] } },
{ "type": "Feature", "properties": { "OBJECTID": 2, "FEATURE_ID": 90002, "CODE": 90, "NAME": "Northgate Neighborhood", "ADDRESS": "NE Northgate Way & 5th Ave NE", "NEIGH_NUM": 28, "XCOORD": 1273614.62493086, "YCOORD": 262024.46885842999, "LONGITUDE": -122.32327578, "LATITUDE": 47.70859338 }, "geometry": { "type": "Point", "coordinates": [ -122.323274486222786, 47.708595175138633 ] } },
{ "type": "Feature", "properties": { "OBJECTID": 3, "FEATURE_ID": 90003, "CODE": 90, "NAME": "Lake City Neighborhood", "ADDRESS": "NE 125th & Lake City Way NE", "NEIGH_NUM": 21, "XCOORD": 1280592.8750819401, "YCOORD": 265788.62504401, "LONGITUDE": -122.29522754, "LATITUDE": 47.71927766 }, "geometry": { "type": "Point", "coordinates": [ -122.295226300965695, 47.719279510063139 ] } },
{ "type": "Feature", "properties": { "OBJECTID": 4, "FEATURE_ID": 90004, "CODE": 90, "NAME": "Finn Hill Neighborhood", "ADDRESS": "NE 141st St & 84th Ave NE", "NEIGH_NUM": 13, "XCOORD": 1296894.62495869, "YCOORD": 268478.40608176001, "LONGITUDE": -122.22920977, "LATITUDE": 47.72747998 }, "geometry": { "type": "Point", "coordinates": [ -122.229208576835731, 47.727481959857819 ] } },
{ "type": "Feature", "properties": { "OBJECTID": 5, "FEATURE_ID": 90005, "CODE": 90, "NAME": "Wedgewood Neighborhood", "ADDRESS": "NE 65th St & 35th Ave NE", "NEIGH_NUM": 39, "XCOORD": 1281511.87488435, "YCOORD": 249903.14106702001, "LONGITUDE": -122.2902732, "LATITUDE": 47.67578349 }, "geometry": { "type": "Point", "coordinates": [ -122.290271766903459, 47.675785360123299 ] } },
{ "type": "Feature", "properties": { "OBJECTID": 6, "FEATURE_ID": 90006, "CODE": 90, "NAME": "University District", "ADDRESS": "NE 45th St & University Way NE", "NEIGH_NUM": 37, "XCOORD": 1275779.4998661899, "YCOORD": 244716.65603318001, "LONGITUDE": -122.31313279, "LATITUDE": 47.66126761 }, "geometry": { "type": "Point", "coordinates": [ -122.313131285457487, 47.661269442912598 ] } },
{ "type": "Feature", "properties": { "OBJECTID": 7, "FEATURE_ID": 90007, "CODE": 90, "NAME": "Green Lake Neighborhood", "ADDRESS": "NE Ravenna Blvd & Green Lake Dr N", "NEIGH_NUM": 16, "XCOORD": 1272776.12496744, "YCOORD": 251422.95298800999, "LONGITUDE": -122.32584595, "LATITUDE": 47.67949043 }, "geometry": { "type": "Point", "coordinates": [ -122.325844530548054, 47.679492228440694 ] } },
{ "type": "Feature", "properties": { "OBJECTID": 8, "FEATURE_ID": 90008, "CODE": 90, "NAME": "Greenwood Neighborhood", "ADDRESS": "N 85th & Greenwood Ave N", "NEIGH_NUM": 17, "XCOORD": 1265601.4998810301, "YCOORD": 255614.21888368999, "LONGITUDE": -122.35530169, "LATITUDE": 47.69059336 }, "geometry": { "type": "Point", "coordinates": [ -122.35530032002309, 47.69059510264357 ] } },
{ "type": "Feature", "properties": { "OBJECTID": 9, "FEATURE_ID": 90009, "CODE": 90, "NAME": "North Beach Neighborhood", "ADDRESS": "NW 100th  St & Triton Dr NW", "NEIGH_NUM": 26, "XCOORD": 1257124.3751030299, "YCOORD": 259777.99992619001, "LONGITUDE": -122.39005637, "LATITUDE": 47.70154125 }, "geometry": { "type": "Point", "coordinates": [ -122.39005504510844, 47.701542917578493 ] } },
{ "type": "Feature", "properties": { "OBJECTID": 10, "FEATURE_ID": 90010, "CODE": 90, "NAME": "Crown Hill Neighborhood", "ADDRESS": "NW 85th St & 15th Ave NW", "NEIGH_NUM": 10, "XCOORD": 1260306.49997236, "YCOORD": 255724.78099852, "LONGITUDE": -122.37680574, "LATITUDE": 47.69060735 }, "geometry": { "type": "Point", "coordinates": [ -122.376804368747145, 47.690609052553931 ] } },
{ "type": "Feature", "properties": { "OBJECTID": 11, "FEATURE_ID": 90011, "CODE": 90, "NAME": "Ballard Neighborhood", "ADDRESS": "NW Market & Ballard Ave NW", "NEIGH_NUM": 1, "XCOORD": 1257790.12508386, "YCOORD": 247775.03115001999, "LONGITUDE": -122.38636968, "LATITUDE": 47.66867888 }, "geometry": { "type": "Point", "coordinates": [ -122.386368209757208, 47.668680574571013 ] } },
{ "type": "Feature", "properties": { "OBJECTID": 12, "FEATURE_ID": 90012, "CODE": 90, "NAME": "Fremont Neighborhood", "ADDRESS": "N 34th St & Fremont Ave N", "NEIGH_NUM": 14, "XCOORD": 1266674.0000326, "YCOORD": 240632.68815127001, "LONGITUDE": -122.34974947000001, "LATITUDE": 47.64958774 }, "geometry": { "type": "Point", "coordinates": [ -122.349747916721498, 47.649589509200197 ] } },
{ "type": "Feature", "properties": { "OBJECTID": 13, "FEATURE_ID": 90013, "CODE": 90, "NAME": "Wallingford Neighborhood", "ADDRESS": "N 45th St & Meridian Ave N", "NEIGH_NUM": 38, "XCOORD": 1270708.1248383501, "YCOORD": 244857.90607877, "LONGITUDE": -122.33371982, "LATITUDE": 47.66138563 }, "geometry": { "type": "Point", "coordinates": [ -122.333718316061734, 47.661387419943154 ] } },
{ "type": "Feature", "properties": { "OBJECTID": 14, "FEATURE_ID": 90014, "CODE": 90, "NAME": "Queen Anne Neighborhood", "ADDRESS": "W Mercer St & Queen Anne Ave N", "NEIGH_NUM": 29, "XCOORD": 1264778.12488736, "YCOORD": 231547.10888151001, "LONGITUDE": -122.35671023, "LATITUDE": 47.62458195 }, "geometry": { "type": "Point", "coordinates": [ -122.356708561325917, 47.624583718267573 ] } },
{ "type": "Feature", "properties": { "OBJECTID": 15, "FEATURE_ID": 90015, "CODE": 90, "NAME": "Capitol Hill Neighborhood", "ADDRESS": "E. Pine & Broadway Ave", "NEIGH_NUM": 5, "XCOORD": 1273566.25002761, "YCOORD": 227964.61014102001, "LONGITUDE": -122.32079886, "LATITUDE": 47.61523365 }, "geometry": { "type": "Point", "coordinates": [ -122.320797150603426, 47.615235482526472 ] } },
{ "type": "Feature", "properties": { "OBJECTID": 16, "FEATURE_ID": 90016, "CODE": 90, "NAME": "Central District", "ADDRESS": "E Madison St & 23rd Ave E", "NEIGH_NUM": 7, "XCOORD": 1278093.75015894, "YCOORD": 229313.39090801001, "LONGITUDE": -122.30255012000001, "LATITUDE": 47.61916903 }, "geometry": { "type": "Point", "coordinates": [ -122.302548436449072, 47.619170890287016 ] } },
{ "type": "Feature", "properties": { "OBJECTID": 17, "FEATURE_ID": 90017, "CODE": 90, "NAME": "Central Business District", "ADDRESS": "Pike St & 3rd Ave", "NEIGH_NUM": 6, "XCOORD": 1269336.3749571899, "YCOORD": 226045.0631271, "LONGITUDE": -122.33779322, "LATITUDE": 47.60974685 }, "geometry": { "type": "Point", "coordinates": [ -122.337791490375778, 47.609748655038665 ] } },
{ "type": "Feature", "properties": { "OBJECTID": 18, "FEATURE_ID": 90018, "CODE": 90, "NAME": "Harbor Island Neighborhood", "ADDRESS": "SW Spokane St & 1th Ave SW", "NEIGH_NUM": 18, "XCOORD": 1266150.50009535, "YCOORD": 212146.78088435001, "LONGITUDE": -122.34959639, "LATITUDE": 47.57148077 }, "geometry": { "type": "Point", "coordinates": [ -122.349594486930982, 47.571482578046997 ] } },
{ "type": "Feature", "properties": { "OBJECTID": 19, "FEATURE_ID": 90019, "CODE": 90, "NAME": "West Seattle Neighborhood", "ADDRESS": "SW Alaska St & California Ave SW", "NEIGH_NUM": 40, "XCOORD": 1256897.37490086, "YCOORD": 208546.04694408999, "LONGITUDE": -122.38677905, "LATITUDE": 47.5611055 }, "geometry": { "type": "Point", "coordinates": [ -122.386777102999261, 47.561107256735795 ] } },
{ "type": "Feature", "properties": { "OBJECTID": 20, "FEATURE_ID": 90020, "CODE": 90, "NAME": "Beacon Hill Neighborhood", "ADDRESS": "S Columbian Way & Beacon Ave S", "NEIGH_NUM": 2, "XCOORD": 1277161.25005545, "YCOORD": 207582.87498592999, "LONGITUDE": -122.30464627000001, "LATITUDE": 47.55955705 }, "geometry": { "type": "Point", "coordinates": [ -122.304644315161795, 47.559558919092673 ] } },
{ "type": "Feature", "properties": { "OBJECTID": 21, "FEATURE_ID": 90021, "CODE": 90, "NAME": "Mount Baker Neighborhood", "ADDRESS": "S Walker St & 31st Ave S", "NEIGH_NUM": 24, "XCOORD": 1280202.6248782, "YCOORD": 216304.54684701, "LONGITUDE": -122.29300046, "LATITUDE": 47.58362186 }, "geometry": { "type": "Point", "coordinates": [ -122.292998610552985, 47.58362374108151 ] } },
{ "type": "Feature", "properties": { "OBJECTID": 22, "FEATURE_ID": 90022, "CODE": 90, "NAME": "Sand Point Neighborhood", "ADDRESS": "Sand Point Way NE & NE 74th St", "NEIGH_NUM": 46, "XCOORD": 1288107.62711278, "YCOORD": 252093.47001968001, "LONGITUDE": -122.26366983, "LATITUDE": 47.68212632 }, "geometry": { "type": "Point", "coordinates": [ -122.263668426325168, 47.682128239438669 ] } },
{ "type": "Feature", "properties": { "OBJECTID": 23, "FEATURE_ID": 90023, "CODE": 90, "NAME": "Seward Park Neighborhood", "ADDRESS": "S Orcas St & Wilson Ave S", "NEIGH_NUM": 33, "XCOORD": 1286693.8750190299, "YCOORD": 204359.10912375999, "LONGITUDE": -122.26580187, "LATITUDE": 47.55121365 }, "geometry": { "type": "Point", "coordinates": [ -122.265799881581543, 47.551215580262152 ] } },
{ "type": "Feature", "properties": { "OBJECTID": 24, "FEATURE_ID": 90024, "CODE": 90, "NAME": "Bryn Mawr Neighborhood", "ADDRESS": "S 115th Pl & 87th Ave S", "NEIGH_NUM": 4, "XCOORD": 1296888.4999709399, "YCOORD": 185312.18790011, "LONGITUDE": -122.22313332, "LATITUDE": 47.49951782 }, "geometry": { "type": "Point", "coordinates": [ -122.223131110458723, 47.499519835509552 ] } },
{ "type": "Feature", "properties": { "OBJECTID": 25, "FEATURE_ID": 90025, "CODE": 90, "NAME": "Skyway Neighborhood", "ADDRESS": "Renton Ave S & 76th Ave S", "NEIGH_NUM": 34, "XCOORD": 1293074.00005403, "YCOORD": 181884.95295668999, "LONGITUDE": -122.23830903, "LATITUDE": 47.4899338 }, "geometry": { "type": "Point", "coordinates": [ -122.238306756641435, 47.489935774133855 ] } },
{ "type": "Feature", "properties": { "OBJECTID": 26, "FEATURE_ID": 90026, "CODE": 90, "NAME": "South Park Neighborhood", "ADDRESS": "S Cloverdale St & 8th Ave S", "NEIGH_NUM": 35, "XCOORD": 1272417.75002803, "YCOORD": 195601.32808293001, "LONGITUDE": -122.32291525, "LATITUDE": 47.52646567 }, "geometry": { "type": "Point", "coordinates": [ -122.322913149201739, 47.526467531643334 ] } },
{ "type": "Feature", "properties": { "OBJECTID": 27, "FEATURE_ID": 90027, "CODE": 90, "NAME": "White Center Neighborhood", "ADDRESS": "SW Roxbury St & 15th Ave SW", "NEIGH_NUM": 41, "XCOORD": 1264668.6251063601, "YCOORD": 192427.85903619, "LONGITUDE": -122.35402019, "LATITUDE": 47.51735186 }, "geometry": { "type": "Point", "coordinates": [ -122.354018046877442, 47.517353685490363 ] } },
{ "type": "Feature", "properties": { "OBJECTID": 28, "FEATURE_ID": 90028, "CODE": 90, "NAME": "Eastgate Neighborhood", "ADDRESS": "SE 38th St & 148th Ave SE", "NEIGH_NUM": 11, "XCOORD": 1317717.49997953, "YCOORD": 212880.60914111001, "LONGITUDE": -122.14077729, "LATITUDE": 47.57608529 }, "geometry": { "type": "Point", "coordinates": [ -122.140775474538117, 47.576087474426906 ] } },
{ "type": "Feature", "properties": { "OBJECTID": 29, "FEATURE_ID": 90029, "CODE": 90, "NAME": "Rainier Valley Neighborhood", "ADDRESS": "S Graham St & Rainier Ave S", "NEIGH_NUM": 31, "XCOORD": 1284124.99990743, "YCOORD": 202563.71901376001, "LONGITUDE": -122.27606631, "LATITUDE": 47.54616093 }, "geometry": { "type": "Point", "coordinates": [ -122.276064301133047, 47.546162840180642 ] } },
{ "type": "Feature", "properties": { "OBJECTID": 30, "FEATURE_ID": 90030, "CODE": 90, "NAME": "Maple Leaf Neighborhood", "ADDRESS": "NE 85th St & 15th Ave NE", "NEIGH_NUM": 23, "XCOORD": 1276204.7499999399, "YCOORD": 255317.12498968001, "LONGITUDE": -122.31223392, "LATITUDE": 47.69034567 }, "geometry": { "type": "Point", "coordinates": [ -122.31223254776647, 47.690347498433965 ] } },
{ "type": "Feature", "properties": { "OBJECTID": 31, "FEATURE_ID": 90031, "CODE": 90, "NAME": "Twin Lakes Neighborhood", "ADDRESS": "SW 320th St & 47th Ave SW", "NEIGH_NUM": 36, "XCOORD": 1253583.6249667001, "YCOORD": 118881.21905626, "LONGITUDE": -122.39284014, "LATITUDE": 47.31515729 }, "geometry": { "type": "Point", "coordinates": [ -122.392836893587074, 47.315158963973552 ] } },
{ "type": "Feature", "properties": { "OBJECTID": 32, "FEATURE_ID": 90032, "CODE": 90, "NAME": "Magnolia Neighborhood", "ADDRESS": "W Mc Graw St & 34th Ave W", "NEIGH_NUM": 22, "XCOORD": 1253967.9998540999, "YCOORD": 237226.10900642999, "LONGITUDE": -122.40100699, "LATITUDE": 47.63955267 }, "geometry": { "type": "Point", "coordinates": [ -122.401005387533615, 47.639554353151929 ] } },
{ "type": "Feature", "properties": { "OBJECTID": 33, "FEATURE_ID": 90033, "CODE": 90, "NAME": "Rainier Beach Neighborhood", "ADDRESS": "S Henderson St & Rainier Ave S", "NEIGH_NUM": 30, "XCOORD": 1285469.8748423599, "YCOORD": 194200.46900801, "LONGITUDE": -122.26998975, "LATITUDE": 47.52330612 }, "geometry": { "type": "Point", "coordinates": [ -122.269987634546183, 47.523308042028304 ] } },
{ "type": "Feature", "properties": { "OBJECTID": 34, "FEATURE_ID": 90034, "CODE": 90, "NAME": "Covington, Timberlane Neighborhood", "ADDRESS": "SR 516 & SE Wax Rd", "NEIGH_NUM": 9, "XCOORD": 1324623.5721253599, "YCOORD": 133240.9849561, "LONGITUDE": -122.10746142000001, "LATITUDE": 47.35810236 }, "geometry": { "type": "Point", "coordinates": [ -122.107458441242159, 47.358104638937164 ] } },
{ "type": "Feature", "properties": { "OBJECTID": 35, "FEATURE_ID": 90035, "CODE": 90, "NAME": "North Creek Neighborhood", "ADDRESS": "North Creek Pky & 120th Ave NE", "NEIGH_NUM": 27, "XCOORD": 1310021.51898044, "YCOORD": 281180.58605793002, "LONGITUDE": -122.17678143000001, "LATITUDE": 47.76293761 }, "geometry": { "type": "Point", "coordinates": [ -122.176780452561019, 47.762939601224332 ] } },
{ "type": "Feature", "properties": { "OBJECTID": 36, "FEATURE_ID": 90036, "CODE": 90, "NAME": "Fairwood Neighborhood", "ADDRESS": "SE Petrovitsky Rd & 140th Ave SE", "NEIGH_NUM": 12, "XCOORD": 1313597.3061201901, "YCOORD": 165322.18293268999, "LONGITUDE": -122.1541612, "LATITUDE": 47.44553043 }, "geometry": { "type": "Point", "coordinates": [ -122.154158706500994, 47.445532613084374 ] } },
{ "type": "Feature", "properties": { "OBJECTID": 37, "FEATURE_ID": 90037, "CODE": 90, "NAME": "Georgetown Neighborhood", "ADDRESS": "S Bailey St & 13th Ave S", "NEIGH_NUM": 15, "XCOORD": 1274253.45698653, "YCOORD": 203395.44208785001, "LONGITUDE": -122.31609424, "LATITUDE": 47.54792637 }, "geometry": { "type": "Point", "coordinates": [ -122.316092239863792, 47.547928228941615 ] } },
{ "type": "Feature", "properties": { "OBJECTID": 38, "FEATURE_ID": 90038, "CODE": 90, "NAME": "Renton Highlands Neighborhood", "ADDRESS": "Sunset Blvd NE & Kirkland Ave NE", "NEIGH_NUM": 32, "XCOORD": 1308010.61814661, "YCOORD": 186130.55306127001, "LONGITUDE": -122.17820416000001, "LATITUDE": 47.50230262 }, "geometry": { "type": "Point", "coordinates": [ -122.17820198080085, 47.50230474861101 ] } },
{ "type": "Feature", "properties": { "OBJECTID": 39, "FEATURE_ID": 90039, "CODE": 90, "NAME": "Kent East Hill Neighborhood", "ADDRESS": "SE 256th St & 104th Ave SE", "NEIGH_NUM": 19, "XCOORD": 1301318.7030527701, "YCOORD": 138916.21605968001, "LONGITUDE": -122.20187714, "LATITUDE": 47.37256189 }, "geometry": { "type": "Point", "coordinates": [ -122.201874224301505, 47.372563954665047 ] } },
{ "type": "Feature", "properties": { "OBJECTID": 40, "FEATURE_ID": 90040, "CODE": 90, "NAME": "Kingsgate Neighborhood", "ADDRESS": "NE 144th St & 124th Ave NE", "NEIGH_NUM": 20, "XCOORD": 1310106.9341639399, "YCOORD": 269620.31685568002, "LONGITUDE": -122.17561454, "LATITUDE": 47.73125428 }, "geometry": { "type": "Point", "coordinates": [ -122.175613409377249, 47.731256337329896 ] } },
{ "type": "Feature", "properties": { "OBJECTID": 41, "FEATURE_ID": 90041, "CODE": 90, "NAME": "Newport Hills Neighborhood", "ADDRESS": "SE 60th St & 119th Ave SE", "NEIGH_NUM": 25, "XCOORD": 1308041.6131633499, "YCOORD": 203461.46000044001, "LONGITUDE": -122.17930481, "LATITUDE": 47.5498094 }, "geometry": { "type": "Point", "coordinates": [ -122.179302849538942, 47.549811510499794 ] } },
{ "type": "Feature", "properties": { "OBJECTID": 42, "FEATURE_ID": 90042, "CODE": 90, "NAME": "Columbia City Neighborhood", "ADDRESS": "S Genesee St & Rainier Ave S", "NEIGH_NUM": 8, "XCOORD": 1281988.6249151099, "YCOORD": 206867.21893693, "LONGITUDE": -122.28504372, "LATITUDE": 47.55784673 }, "geometry": { "type": "Point", "coordinates": [ -122.285041761176387, 47.557848628049655 ] } },
{ "type": "Feature", "properties": { "OBJECTID": 43, "FEATURE_ID": 90043, "CODE": 90, "NAME": "Admiral Neighborhood", "ADDRESS": "California Ave SW & SW Admiral Way", "NEIGH_NUM": 42, "XCOORD": 1257102.3761312801, "YCOORD": 215870.82789818, "LONGITUDE": -122.38654756, "LATITUDE": 47.58119359 }, "geometry": { "type": "Point", "coordinates": [ -122.386545698484184, 47.581195332976364 ] } },
{ "type": "Feature", "properties": { "OBJECTID": 44, "FEATURE_ID": 90044, "CODE": 90, "NAME": "Alki Neighborhood", "ADDRESS": "Alki Ave SW & 61st Ave SW", "NEIGH_NUM": 43, "XCOORD": 1251139.62493344, "YCOORD": 215236.7658461, "LONGITUDE": -122.41064962, "LATITUDE": 47.57912324 }, "geometry": { "type": "Point", "coordinates": [ -122.410647754905298, 47.579124952800512 ] } },
{ "type": "Feature", "properties": { "OBJECTID": 45, "FEATURE_ID": 90045, "CODE": 90, "NAME": "International District", "ADDRESS": "Maynard Ave S & S Jackson St", "NEIGH_NUM": 44, "XCOORD": 1272402.75005803, "YCOORD": 222133.48400801001, "LONGITUDE": -122.32505713, "LATITUDE": 47.59918894 }, "geometry": { "type": "Point", "coordinates": [ -122.325055354830141, 47.599190766871111 ] } },
{ "type": "Feature", "properties": { "OBJECTID": 46, "FEATURE_ID": 90046, "CODE": 90, "NAME": "Morgan Junction Neighborhood", "ADDRESS": "California Ave SW & Fauntleroy Way SW", "NEIGH_NUM": 45, "XCOORD": 1256669.75002803, "YCOORD": 202627.39113052, "LONGITUDE": -122.38721687, "LATITUDE": 47.54487025 }, "geometry": { "type": "Point", "coordinates": [ -122.387214847598329, 47.54487201989226 ] } }
]
}
